ONEWEB-0509             
1 54127U 22138Q   23242.68818850 -.00011487  00000+0 -28719-1 0  9992
2 54127  87.9280 148.2530 0001961  90.7593 269.3764 13.19826712 42078
ONEWEB-0510             
1 54128U 22138R   23242.40016716 -.00000057  00000+0 -17106-3 0  9995
2 54128  87.9262 117.8026 0002118  86.7169 273.4206 13.20773448 44405
ONEWEB-0511             
1 54129U 22138S   23242.68493084 -.00000102  00000+0 -28688-3 0  9991
2 54129  87.9282 148.2543 0001425  77.6411 282.4881 13.19727205 42101
ONEWEB-0512             
1 54130U 22138T   23242.67706054  .00003589  00000+0  89399-2 0  9991
2 54130  87.9279 148.2557 0001907  92.7371 267.3980 13.19648740 42076
ONEWEB-0513             
1 54131U 22138U   23242.49621699 -.00003720  00000+0 -93249-2 0  9991
2 54131  87.9279 148.2955 0001687 100.8334 259.2988 13.19750159 41934
ONEWEB-0514             
1 54132U 22138V   23242.69289190 -.00006646  00000+0 -16635-1 0  9993
2 54132  87.9286 148.2546 0001925  78.4539 281.6810 13.19767414 42094
ONEWEB-0515             
1 54133U 22138W   23242.69058529  .00000101  00000+0  21627-3 0  9991
2 54133  87.9114 117.8006 0002606  67.9758 292.1652 13.20770696 44463
ONEWEB-0516             
1 54134U 22138X   23242.66760762 -.00006667  00000+0 -16688-1 0  9992
2 54134  87.9282 148.2559 0002093  79.3163 280.8206 13.19767271 42097
